[{"OBJECT_NAME":"SL-14 R/B","OBJECT_ID":"1986-006B","EPOCH":"2026-03-12T14:47:17.081088","MEAN_MOTION":14.86819773,"ECCENTRICITY":0.007506,"INCLINATION":82.5236,"RA_OF_ASC_NODE":256.9821,"ARG_OF_PERICENTER":262.8934,"MEAN_ANOMALY":96.3743,"EPHEMERIS_TYPE":0,"CLASSIFICATION_TYPE":"U","NORAD_CAT_ID":16496,"ELEMENT_SET_NO":999,"REV_AT_EPOCH":14964,"BSTAR":8.7591e-5,"MEAN_MOTION_DOT":8.47e-6,"MEAN_MOTION_DDOT":0},{"OBJECT_NAME":"COSMOS 1743","OBJECT_ID":"1986-034A","EPOCH":"2026-03-12T11:12:17.559360","MEAN_MOTION":15.58770351,"ECCENTRICITY":0.0001481,"INCLINATION":82.5293,"RA_OF_ASC_NODE":70.9157,"ARG_OF_PERICENTER":265.4686,"MEAN_ANOMALY":94.6401,"EPHEMERIS_TYPE":0,"CLASSIFICATION_TYPE":"U","NORAD_CAT_ID":16719,"ELEMENT_SET_NO":999,"REV_AT_EPOCH":18068,"BSTAR":0.00051147,"MEAN_MOTION_DOT":0.00039581,"MEAN_MOTION_DDOT":0},{"OBJECT_NAME":"SL-14 R/B","OBJECT_ID":"1986-046B","EPOCH":"2026-03-12T12:02:11.925024","MEAN_MOTION":14.85593566,"ECCENTRICITY":0.002216,"INCLINATION":82.4783,"RA_OF_ASC_NODE":77.524,"ARG_OF_PERICENTER":215.635,"MEAN_ANOMALY":144.3388,"EPHEMERIS_TYPE":0,"CLASSIFICATION_TYPE":"U","NORAD_CAT_ID":16792,"ELEMENT_SET_NO":999,"REV_AT_EPOCH":12682,"BSTAR":6.5606e-5,"MEAN_MOTION_DOT":5.94e-6,"MEAN_MOTION_DDOT":0},{"OBJECT_NAME":"SL-14 R/B","OBJECT_ID":"1986-055B","EPOCH":"2026-03-12T15:24:10.548864","MEAN_MOTION":14.85645631,"ECCENTRICITY":0.0017941,"INCLINATION":82.5196,"RA_OF_ASC_NODE":123.8994,"ARG_OF_PERICENTER":326.4064,"MEAN_ANOMALY":148.8115,"EPHEMERIS_TYPE":0,"CLASSIFICATION_TYPE":"U","NORAD_CAT_ID":16882,"ELEMENT_SET_NO":999,"REV_AT_EPOCH":11980,"BSTAR":5.5473e-5,"MEAN_MOTION_DOT":5.06e-6,"MEAN_MOTION_DDOT":0},{"OBJECT_NAME":"AJISAI (EGS)","OBJECT_ID":"1986-061A","EPOCH":"2026-03-12T20:17:34.745856","MEAN_MOTION":12.44515645,"ECCENTRICITY":0.0011282,"INCLINATION":50.0081,"RA_OF_ASC_NODE":83.6429,"ARG_OF_PERICENTER":295.1627,"MEAN_ANOMALY":125.5533,"EPHEMERIS_TYPE":0,"CLASSIFICATION_TYPE":"U","NORAD_CAT_ID":16908,"ELEMENT_SET_NO":999,"REV_AT_EPOCH":46839,"BSTAR":-1.278e-5,"MEAN_MOTION_DOT":-9.9e-7,"MEAN_MOTION_DDOT":0},{"OBJECT_NAME":"SL-14 R/B","OBJECT_ID":"1987-024B","EPOCH":"2026-03-12T12:48:49.099968","MEAN_MOTION":14.86135162,"ECCENTRICITY":0.0016749,"INCLINATION":82.5245,"RA_OF_ASC_NODE":90.0897,"ARG_OF_PERICENTER":249.6654,"MEAN_ANOMALY":110.2763,"EPHEMERIS_TYPE":0,"CLASSIFICATION_TYPE":"U","NORAD_CAT_ID":17567,"ELEMENT_SET_NO":999,"REV_AT_EPOCH":8855,"BSTAR":6.1975e-5,"MEAN_MOTION_DOT":5.68e-6,"MEAN_MOTION_DDOT":0},{"OBJECT_NAME":"COSMOS 1833","OBJECT_ID":"1987-027A","EPOCH":"2026-03-12T18:18:13.173408","MEAN_MOTION":14.13054014,"ECCENTRICITY":0.002412,"INCLINATION":70.9217,"RA_OF_ASC_NODE":319.5609,"ARG_OF_PERICENTER":210.2,"MEAN_ANOMALY":149.7732,"EPHEMERIS_TYPE":0,"CLASSIFICATION_TYPE":"U","NORAD_CAT_ID":17589,"ELEMENT_SET_NO":999,"REV_AT_EPOCH":1075,"BSTAR":-7.966e-5,"MEAN_MOTION_DOT":-1.97e-6,"MEAN_MOTION_DDOT":0},{"OBJECT_NAME":"SL-16 R/B","OBJECT_ID":"1987-027B","EPOCH":"2026-03-12T17:27:29.011968","MEAN_MOTION":14.1716648,"ECCENTRICITY":0.0003243,"INCLINATION":70.9996,"RA_OF_ASC_NODE":270.0934,"ARG_OF_PERICENTER":136.4468,"MEAN_ANOMALY":223.6912,"EPHEMERIS_TYPE":0,"CLASSIFICATION_TYPE":"U","NORAD_CAT_ID":17590,"ELEMENT_SET_NO":999,"REV_AT_EPOCH":1577,"BSTAR":3.9658e-5,"MEAN_MOTION_DOT":3.2e-7,"MEAN_MOTION_DDOT":0},{"OBJECT_NAME":"SL-14 R/B","OBJECT_ID":"1987-038B","EPOCH":"2026-03-12T15:57:42.013440","MEAN_MOTION":14.85372207,"ECCENTRICITY":0.0019915,"INCLINATION":82.4995,"RA_OF_ASC_NODE":294.0046,"ARG_OF_PERICENTER":150.9335,"MEAN_ANOMALY":209.2994,"EPHEMERIS_TYPE":0,"CLASSIFICATION_TYPE":"U","NORAD_CAT_ID":17912,"ELEMENT_SET_NO":999,"REV_AT_EPOCH":7967,"BSTAR":5.4806e-5,"MEAN_MOTION_DOT":4.97e-6,"MEAN_MOTION_DDOT":0},{"OBJECT_NAME":"COSMOS 1844","OBJECT_ID":"1987-041A","EPOCH":"2026-03-12T20:45:59.937120","MEAN_MOTION":14.14551632,"ECCENTRICITY":0.0030188,"INCLINATION":70.9001,"RA_OF_ASC_NODE":27.4768,"ARG_OF_PERICENTER":13.1537,"MEAN_ANOMALY":347.0364,"EPHEMERIS_TYPE":0,"CLASSIFICATION_TYPE":"U","NORAD_CAT_ID":17973,"ELEMENT_SET_NO":999,"REV_AT_EPOCH":403,"BSTAR":-3.8561e-5,"MEAN_MOTION_DOT":-1.23e-6,"MEAN_MOTION_DDOT":0},{"OBJECT_NAME":"SL-14 R/B","OBJECT_ID":"1987-055B","EPOCH":"2026-03-12T18:37:40.659456","MEAN_MOTION":14.85633518,"ECCENTRICITY":0.0020902,"INCLINATION":82.503,"RA_OF_ASC_NODE":346.1234,"ARG_OF_PERICENTER":7.7989,"MEAN_ANOMALY":352.3548,"EPHEMERIS_TYPE":0,"CLASSIFICATION_TYPE":"U","NORAD_CAT_ID":18153,"ELEMENT_SET_NO":999,"REV_AT_EPOCH":7039,"BSTAR":6.8451e-5,"MEAN_MOTION_DOT":6.19e-6,"MEAN_MOTION_DDOT":0},{"OBJECT_NAME":"COSMOS 1867","OBJECT_ID":"1987-060A","EPOCH":"2026-03-12T17:23:39.560352","MEAN_MOTION":14.31503615,"ECCENTRICITY":0.0014533,"INCLINATION":65.0108,"RA_OF_ASC_NODE":298.2061,"ARG_OF_PERICENTER":278.8556,"MEAN_ANOMALY":81.0883,"EPHEMERIS_TYPE":0,"CLASSIFICATION_TYPE":"U","NORAD_CAT_ID":18187,"ELEMENT_SET_NO":999,"REV_AT_EPOCH":2037,"BSTAR":2.7854e-5,"MEAN_MOTION_DOT":-2.6e-7,"MEAN_MOTION_DDOT":0},{"OBJECT_NAME":"SL-14 R/B","OBJECT_ID":"1988-001B","EPOCH":"2026-03-12T18:31:14.408256","MEAN_MOTION":14.85532281,"ECCENTRICITY":0.0017017,"INCLINATION":82.5157,"RA_OF_ASC_NODE":192.4619,"ARG_OF_PERICENTER":224.831,"MEAN_ANOMALY":135.1533,"EPHEMERIS_TYPE":0,"CLASSIFICATION_TYPE":"U","NORAD_CAT_ID":18749,"ELEMENT_SET_NO":999,"REV_AT_EPOCH":4248,"BSTAR":7.8105e-5,"MEAN_MOTION_DOT":7.0e-6,"MEAN_MOTION_DDOT":0},{"OBJECT_NAME":"COSMOS 1933","OBJECT_ID":"1988-020A","EPOCH":"2026-03-12T13:24:30.053088","MEAN_MOTION":15.18014469,"ECCENTRICITY":0.0004156,"INCLINATION":82.5104,"RA_OF_ASC_NODE":248.0725,"ARG_OF_PERICENTER":172.1951,"MEAN_ANOMALY":187.9349,"EPHEMERIS_TYPE":0,"CLASSIFICATION_TYPE":"U","NORAD_CAT_ID":18958,"ELEMENT_SET_NO":999,"REV_AT_EPOCH":5066,"BSTAR":0.00027542,"MEAN_MOTION_DOT":5.631e-5,"MEAN_MOTION_DDOT":0},{"OBJECT_NAME":"SL-3 R/B","OBJECT_ID":"1988-032B","EPOCH":"2026-03-12T19:50:33.720288","MEAN_MOTION":15.19950457,"ECCENTRICITY":0.0024679,"INCLINATION":97.5196,"RA_OF_ASC_NODE":55.0667,"ARG_OF_PERICENTER":219.9074,"MEAN_ANOMALY":140.0347,"EPHEMERIS_TYPE":0,"CLASSIFICATION_TYPE":"U","NORAD_CAT_ID":19046,"ELEMENT_SET_NO":999,"REV_AT_EPOCH":5258,"BSTAR":0.00029393,"MEAN_MOTION_DOT":6.302e-5,"MEAN_MOTION_DDOT":0},{"OBJECT_NAME":"SL-16 R/B","OBJECT_ID":"1988-039B","EPOCH":"2026-03-12T09:01:29.665056","MEAN_MOTION":14.19615873,"ECCENTRICITY":0.0022936,"INCLINATION":71.0137,"RA_OF_ASC_NODE":62.8667,"ARG_OF_PERICENTER":330.4756,"MEAN_ANOMALY":29.5073,"EPHEMERIS_TYPE":0,"CLASSIFICATION_TYPE":"U","NORAD_CAT_ID":19120,"ELEMENT_SET_NO":999,"REV_AT_EPOCH":95876,"BSTAR":7.8137e-5,"MEAN_MOTION_DOT":1.17e-6,"MEAN_MOTION_DDOT":0},{"OBJECT_NAME":"COSMOS 1953","OBJECT_ID":"1988-050A","EPOCH":"2026-03-12T16:51:28.262016","MEAN_MOTION":15.28582954,"ECCENTRICITY":0.0012542,"INCLINATION":82.5103,"RA_OF_ASC_NODE":155.2176,"ARG_OF_PERICENTER":113.1251,"MEAN_ANOMALY":247.1312,"EPHEMERIS_TYPE":0,"CLASSIFICATION_TYPE":"U","NORAD_CAT_ID":19210,"ELEMENT_SET_NO":999,"REV_AT_EPOCH":3824,"BSTAR":0.00031725,"MEAN_MOTION_DOT":8.873e-5,"MEAN_MOTION_DDOT":0}]
