SL-14 R/B               
1 16496U 86006B   26071.61616992  .00000847  00000+0  87591-4 0  9994
2 16496  82.5236 256.9821 0075060 262.8934  96.3743 14.86819773149649
COSMOS 1743             
1 16719U 86034A   26071.46686990  .00039581  00000+0  51147-3 0  9995
2 16719  82.5293  70.9157 0001481 265.4686  94.6401 15.58770351180684
SL-14 R/B               
1 16792U 86046B   26071.50152691  .00000594  00000+0  65606-4 0  9998
2 16792  82.4783  77.5240 0022160 215.6350 144.3388 14.85593566126829
SL-14 R/B               
1 16882U 86055B   26071.64178876  .00000506  00000+0  55473-4 0  9990
2 16882  82.5196 123.8994 0017941 326.4064 148.8115 14.85645631119801
AJISAI (EGS)            
1 16908U 86061A   26071.84554104 -.00000099  00000+0 -12780-4 0  9993
2 16908  50.0081  83.6429 0011282 295.1627 125.5533 12.44515645468399
SL-14 R/B               
1 17567U 87024B   26071.53390162  .00000568  00000+0  61975-4 0  9992
2 17567  82.5245  90.0897 0016749 249.6654 110.2763 14.86135162 88553
COSMOS 1833             
1 17589U 87027A   26071.76265247 -.00000197  00000+0 -79660-4 0  9999
2 17589  70.9217 319.5609 0024120 210.2000 149.7732 14.13054014 10754
SL-16 R/B               
1 17590U 87027B   26071.72741912  .00000032  00000+0  39658-4 0  9994
2 17590  70.9996 270.0934 0003243 136.4468 223.6912 14.17166480 15776
SL-14 R/B               
1 17912U 87038B   26071.66506960  .00000497  00000+0  54806-4 0  9996
2 17912  82.4995 294.0046 0019915 150.9335 209.2994 14.85372207 79678
COSMOS 1844             
1 17973U 87041A   26071.86527705 -.00000123  00000+0 -38561-4 0  9997
2 17973  70.9001  27.4768 0030188  13.1537 347.0364 14.14551632  4036
SL-14 R/B               
1 18153U 87055B   26071.77616504  .00000619  00000+0  68451-4 0  9998
2 18153  82.5030 346.1234 0020902   7.7989 352.3548 14.85633518 70397
COSMOS 1867             
1 18187U 87060A   26071.72476343 -.00000026  00000+0  27854-4 0  9996
2 18187  65.0108 298.2061 0014533 278.8556  81.0883 14.31503615 20371
SL-14 R/B               
1 18749U 88001B   26071.77169454  .00000700  00000+0  78105-4 0  9996
2 18749  82.5157 192.4619 0017017 224.8310 135.1533 14.85532281 42485
COSMOS 1933             
1 18958U 88020A   26071.55868117  .00005631  00000+0  27542-3 0  9993
2 18958  82.5104 248.0725 0004156 172.1951 187.9349 15.18014469 50660
SL-3 R/B                
1 19046U 88032B   26071.82677917  .00006302  00000+0  29393-3 0  9993
2 19046  97.5196  55.0667 0024679 219.9074 140.0347 15.19950457 52583
SL-16 R/B               
1 19120U 88039B   26071.37603779  .00000117  00000+0  78137-4 0  9997
2 19120  71.0137  62.8667 0022936 330.4756  29.5073 14.19615873958765
COSMOS 1953             
1 19210U 88050A   26071.70241044  .00008873  00000+0  31725-3 0  9998
2 19210  82.5103 155.2176 0012542 113.1251 247.1312 15.28582954 38245
